[
  {
    "OBJECT_NAME": "JILIN GAOFEN OBJECT C",
    "OBJECT_ID": "2026-080C",
    "EPOCH": "2026-04-19T01:15:18.825408",
    "MEAN_MOTION": 15.09281899,
    "ECCENTRICITY": 0.00140837,
    "INCLINATION": 97.6618,
    "RA_OF_ASC_NODE": 184.6919,
    "ARG_OF_PERICENTER": 261.8747,
    "MEAN_ANOMALY": 98.0884,
    "EPHEMERIS_TYPE": 0,
    "CLASSIFICATION_TYPE": "U",
    "NORAD_CAT_ID": 68693,
    "ELEMENT_SET_NO": 999,
    "REV_AT_EPOCH": 74,
    "BSTAR": 2.1875792e-05,
    "MEAN_MOTION_DOT": 2.84e-06,
    "MEAN_MOTION_DDOT": 0
  },
  {
    "OBJECT_NAME": "JILIN GAOFEN OBJECT D",
    "OBJECT_ID": "2026-080D",
    "EPOCH": "2026-04-15T01:47:00.364128",
    "MEAN_MOTION": 15.09349528,
    "ECCENTRICITY": 0.00142443,
    "INCLINATION": 97.6682,
    "RA_OF_ASC_NODE": 180.7187,
    "ARG_OF_PERICENTER": 278.7346,
    "MEAN_ANOMALY": 81.2269,
    "EPHEMERIS_TYPE": 0,
    "CLASSIFICATION_TYPE": "U",
    "NORAD_CAT_ID": 68694,
    "ELEMENT_SET_NO": 999,
    "REV_AT_EPOCH": 12,
    "BSTAR": 6.7430326e-05,
    "MEAN_MOTION_DOT": 1.013e-05,
    "MEAN_MOTION_DDOT": 0
  },
  {
    "OBJECT_NAME": "JILIN GAOFEN OBJECT E",
    "OBJECT_ID": "2026-080E",
    "EPOCH": "2026-04-19T06:01:12.396288",
    "MEAN_MOTION": 15.0939085,
    "ECCENTRICITY": 0.00145956,
    "INCLINATION": 97.6658,
    "RA_OF_ASC_NODE": 184.8929,
    "ARG_OF_PERICENTER": 262.7212,
    "MEAN_ANOMALY": 97.2358,
    "EPHEMERIS_TYPE": 0,
    "CLASSIFICATION_TYPE": "U",
    "NORAD_CAT_ID": 68695,
    "ELEMENT_SET_NO": 999,
    "REV_AT_EPOCH": 73,
    "BSTAR": 5.7832887e-05,
    "MEAN_MOTION_DOT": 8.6e-06,
    "MEAN_MOTION_DDOT": 0
  },
  {
    "OBJECT_NAME": "JILIN GAOFEN OBJECT F",
    "OBJECT_ID": "2026-080F",
    "EPOCH": "2026-04-15T01:46:57.241632",
    "MEAN_MOTION": 15.09416186,
    "ECCENTRICITY": 0.00136046,
    "INCLINATION": 97.6631,
    "RA_OF_ASC_NODE": 180.7184,
    "ARG_OF_PERICENTER": 281.113,
    "MEAN_ANOMALY": 78.8569,
    "EPHEMERIS_TYPE": 0,
    "CLASSIFICATION_TYPE": "U",
    "NORAD_CAT_ID": 68696,
    "ELEMENT_SET_NO": 999,
    "REV_AT_EPOCH": 10,
    "BSTAR": 6.7431773e-05,
    "MEAN_MOTION_DOT": 1.014e-05,
    "MEAN_MOTION_DDOT": 0
  },
  {
    "OBJECT_NAME": "JILIN GAOFEN OBJECT G",
    "OBJECT_ID": "2026-080G",
    "EPOCH": "2026-04-15T01:46:52.419648",
    "MEAN_MOTION": 15.09509936,
    "ECCENTRICITY": 0.0014131,
    "INCLINATION": 97.6672,
    "RA_OF_ASC_NODE": 180.7171,
    "ARG_OF_PERICENTER": 282.1232,
    "MEAN_ANOMALY": 77.8414,
    "EPHEMERIS_TYPE": 0,
    "CLASSIFICATION_TYPE": "U",
    "NORAD_CAT_ID": 68697,
    "ELEMENT_SET_NO": 999,
    "REV_AT_EPOCH": 10,
    "BSTAR": 0.00016346539,
    "MEAN_MOTION_DOT": 2.56e-05,
    "MEAN_MOTION_DDOT": 0
  },
  {
    "OBJECT_NAME": "JILIN GAOFEN OBJECT H",
    "OBJECT_ID": "2026-080H",
    "EPOCH": "2026-04-15T01:46:50.341728",
    "MEAN_MOTION": 15.09549566,
    "ECCENTRICITY": 0.00139304,
    "INCLINATION": 97.6665,
    "RA_OF_ASC_NODE": 180.7184,
    "ARG_OF_PERICENTER": 282.9895,
    "MEAN_ANOMALY": 76.9778,
    "EPHEMERIS_TYPE": 0,
    "CLASSIFICATION_TYPE": "U",
    "NORAD_CAT_ID": 68698,
    "ELEMENT_SET_NO": 999,
    "REV_AT_EPOCH": 10,
    "BSTAR": 6.7135772e-05,
    "MEAN_MOTION_DOT": 1.014e-05,
    "MEAN_MOTION_DDOT": 0
  },
  {
    "OBJECT_NAME": "2026-083A",
    "OBJECT_ID": "2026-083A",
    "EPOCH": "2026-04-19T20:31:47.309952",
    "MEAN_MOTION": 15.22010272,
    "ECCENTRICITY": 0.00650761,
    "INCLINATION": 98.2653,
    "RA_OF_ASC_NODE": 255.4189,
    "ARG_OF_PERICENTER": 69.7497,
    "MEAN_ANOMALY": 291.0717,
    "EPHEMERIS_TYPE": 0,
    "CLASSIFICATION_TYPE": "U",
    "NORAD_CAT_ID": 68753,
    "ELEMENT_SET_NO": 999,
    "REV_AT_EPOCH": 45,
    "BSTAR": 0.00019177524,
    "MEAN_MOTION_DOT": 4.552e-05,
    "MEAN_MOTION_DDOT": 0
  },
  {
    "OBJECT_NAME": "2026-083B",
    "OBJECT_ID": "2026-083B",
    "EPOCH": "2026-04-19T22:49:17.364288",
    "MEAN_MOTION": 15.06513016,
    "ECCENTRICITY": 0.00087607,
    "INCLINATION": 98.2513,
    "RA_OF_ASC_NODE": 255.4034,
    "ARG_OF_PERICENTER": 251.6822,
    "MEAN_ANOMALY": 108.3451,
    "EPHEMERIS_TYPE": 0,
    "CLASSIFICATION_TYPE": "U",
    "NORAD_CAT_ID": 68754,
    "ELEMENT_SET_NO": 999,
    "REV_AT_EPOCH": 45,
    "BSTAR": 0.00014234328,
    "MEAN_MOTION_DOT": 2.033e-05,
    "MEAN_MOTION_DDOT": 0
  },
  {
    "OBJECT_NAME": "2026-083D",
    "OBJECT_ID": "2026-083D",
    "EPOCH": "2026-04-19T21:47:26.467872",
    "MEAN_MOTION": 15.31391908,
    "ECCENTRICITY": 0.00134306,
    "INCLINATION": 96.905,
    "RA_OF_ASC_NODE": 250.8958,
    "ARG_OF_PERICENTER": 261.8525,
    "MEAN_ANOMALY": 98.1194,
    "EPHEMERIS_TYPE": 0,
    "CLASSIFICATION_TYPE": "U",
    "NORAD_CAT_ID": 68756,
    "ELEMENT_SET_NO": 999,
    "REV_AT_EPOCH": 44,
    "BSTAR": 0.00023399372,
    "MEAN_MOTION_DOT": 7.042e-05,
    "MEAN_MOTION_DDOT": 0
  },
  {
    "OBJECT_NAME": "2026-083E",
    "OBJECT_ID": "2026-083E",
    "EPOCH": "2026-04-17T03:50:04.293888",
    "MEAN_MOTION": 15.23009713,
    "ECCENTRICITY": 0.00617028,
    "INCLINATION": 98.2473,
    "RA_OF_ASC_NODE": 252.4151,
    "ARG_OF_PERICENTER": 80.1499,
    "MEAN_ANOMALY": 280.6695,
    "EPHEMERIS_TYPE": 0,
    "CLASSIFICATION_TYPE": "U",
    "NORAD_CAT_ID": 68757,
    "ELEMENT_SET_NO": 999,
    "REV_AT_EPOCH": 3,
    "BSTAR": 6.3260824e-05,
    "MEAN_MOTION_DOT": 1.477e-05,
    "MEAN_MOTION_DDOT": 0
  },
  {
    "OBJECT_NAME": "2026-083F",
    "OBJECT_ID": "2026-083F",
    "EPOCH": "2026-04-19T22:49:21.171072",
    "MEAN_MOTION": 15.06565892,
    "ECCENTRICITY": 0.00102056,
    "INCLINATION": 96.9506,
    "RA_OF_ASC_NODE": 249.9501,
    "ARG_OF_PERICENTER": 247.2587,
    "MEAN_ANOMALY": 112.7564,
    "EPHEMERIS_TYPE": 0,
    "CLASSIFICATION_TYPE": "U",
    "NORAD_CAT_ID": 68758,
    "ELEMENT_SET_NO": 999,
    "REV_AT_EPOCH": 43,
    "BSTAR": 0.0001079461,
    "MEAN_MOTION_DOT": 1.545e-05,
    "MEAN_MOTION_DDOT": 0
  },
  {
    "OBJECT_NAME": "2026-083G",
    "OBJECT_ID": "2026-083G",
    "EPOCH": "2026-04-19T21:13:36.263136",
    "MEAN_MOTION": 15.06607327,
    "ECCENTRICITY": 0.00103841,
    "INCLINATION": 96.9511,
    "RA_OF_ASC_NODE": 249.8929,
    "ARG_OF_PERICENTER": 247.573,
    "MEAN_ANOMALY": 112.44,
    "EPHEMERIS_TYPE": 0,
    "CLASSIFICATION_TYPE": "U",
    "NORAD_CAT_ID": 68759,
    "ELEMENT_SET_NO": 999,
    "REV_AT_EPOCH": 41,
    "BSTAR": 0.00010710726,
    "MEAN_MOTION_DOT": 1.535e-05,
    "MEAN_MOTION_DDOT": 0
  },
  {
    "OBJECT_NAME": "DAQI-2",
    "OBJECT_ID": "2026-084A",
    "EPOCH": "2026-04-19T03:15:08.628192",
    "MEAN_MOTION": 14.61978622,
    "ECCENTRICITY": 0.0004852,
    "INCLINATION": 98.2883,
    "RA_OF_ASC_NODE": 183.5451,
    "ARG_OF_PERICENTER": 219.7145,
    "MEAN_ANOMALY": 140.3701,
    "EPHEMERIS_TYPE": 0,
    "CLASSIFICATION_TYPE": "U",
    "NORAD_CAT_ID": 68760,
    "ELEMENT_SET_NO": 999,
    "REV_AT_EPOCH": 29,
    "BSTAR": 1.5616e-05,
    "MEAN_MOTION_DOT": 3e-07,
    "MEAN_MOTION_DDOT": 0
  },
  {
    "OBJECT_NAME": "2026-083H",
    "OBJECT_ID": "2026-083H",
    "EPOCH": "2026-04-19T21:13:10.797600",
    "MEAN_MOTION": 15.06774898,
    "ECCENTRICITY": 0.00111184,
    "INCLINATION": 96.9505,
    "RA_OF_ASC_NODE": 249.89,
    "ARG_OF_PERICENTER": 247.8348,
    "MEAN_ANOMALY": 112.1701,
    "EPHEMERIS_TYPE": 0,
    "CLASSIFICATION_TYPE": "U",
    "NORAD_CAT_ID": 68762,
    "ELEMENT_SET_NO": 999,
    "REV_AT_EPOCH": 42,
    "BSTAR": 0.00010885747,
    "MEAN_MOTION_DOT": 1.568e-05,
    "MEAN_MOTION_DDOT": 0
  }
]